INMARSAT 4-F3           
1 33278U 08039A   26157.61323703 -.00000128  00000+0  00000+0 0  9999
2 33278   4.2844  31.5915 0002754  48.5507 297.6369  1.00270385 46433
NIMIQ 4                 
1 33373U 08044A   26157.83028490 -.00000207  00000+0  00000+0 0  9998
2 33373   0.0096  46.0491 0002044  22.5317  43.5675  1.00270840 64888
GALAXY 19 (G-19)        
1 33376U 08045A   26157.61341036 -.00000127  00000+0  00000+0 0  9993
2 33376   0.0147  61.0528 0003083  21.4185 296.4012  1.00280536 64798
ASTRA 1M                
1 33436U 08057A   26157.85042345  .00000135  00000+0  00000+0 0  9998
2 33436   0.2689  82.3090 0005067  19.7607 118.7478  1.00273950 45637
EUTELSAT HOTBIRD 13C    
1 33459U 08065A   26157.83661159 -.00000269  00000+0  00000+0 0  9999
2 33459   2.9229  79.3140 0003784 357.7688  69.0487  1.00271941 47246
EXPRESS-AM44            
1 33595U 09007A   26157.84432495 -.00000075  00000+0  00000+0 0  9992
2 33595   3.4366  78.5191 0004417 351.8752 117.8249  1.00272081 52186
NSS-9                   
1 33749U 09008A   26157.81147814  .00000085  00000+0  00000+0 0  9999
2 33749   1.2341  82.7601 0002275 342.8992 304.7643  1.00271213 63414
TELSTAR 11N             
1 34111U 09009A   26157.83912492 -.00000237  00000+0  00000+0 0  9998
2 34111   0.0173   3.5538 0002586  62.4560  93.7717  1.00271710 46149
WGS F2 (USA 204)        
1 34713U 09017A   26157.81346043  .00000082  00000+0  00000+0 0  9993
2 34713   0.0175 336.7295 0000667 237.6080  31.2556  1.00268275 45511
SES-7 (PROTOSTAR 2)     
1 34941U 09027A   26157.83933411 -.00000331  00000+0  00000+0 0  9998
2 34941   0.0594  78.9322 0000503 321.6141 265.1286  1.00273271 62526
MEASAT-3A               
1 35362U 09032A   26157.80688477 -.00000097  00000+0  00000+0 0  9997
2 35362   0.0223 353.8867 0003171  79.2652 272.5503  1.00272137  7926
GOES 14                 
1 35491U 09033A   26157.63447316 -.00000234  00000+0  00000+0 0  9990
2 35491   1.6621  83.1711 0002047   2.3886 185.7647  1.00114764  6481
FM-5                    
1 35493U 09034A   26157.82950490 -.00000186  00000+0  00000+0 0  9992
2 35493   0.0159 292.0098 0000596  27.6992 148.0024  1.00271652 46548
TERRESTAR-1             
1 35496U 09035A   26157.68200083 -.00000044  00000+0  00000+0 0  9999
2 35496   5.1760  48.8051 0002780  22.2788 318.5272  1.00273426 62023
ASIASAT 5               
1 35696U 09042A   26157.86639735 -.00000294  00000+0  00000+0 0  9996
2 35696   0.0097  41.0677 0001497  14.8871 251.7346  1.00272420 61601
JCSAT-12 (JCSAT-RA)     
1 35755U 09044A   26157.87263737 -.00000314  00000+0  00000+0 0  9993
2 35755   0.0099 335.9536 0000238 100.3999 265.1217  1.00272355 61504
OPTUS D3                
1 35756U 09044B   26157.80619145 -.00000132  00000+0  00000+0 0  9993
2 35756   0.8659 269.7353 0003239 169.7377 262.1231  1.00270999 61469
NIMIQ 5                 
1 35873U 09050A   26157.54691662 -.00000244  00000+0  00000+0 0  9999
2 35873   0.0218  61.8928 0002952  13.4240 303.8408  1.00272146 61236
AMAZONAS 2              
1 35942U 09054A   26157.83227823 -.00000240  00000+0  00000+0 0  9992
2 35942   1.7879  83.1757 0006148  32.1655   7.5573  1.00206924 61085
COMSATBW-1              
1 35943U 09054B   26157.90411355  .00000038  00000+0  00000+0 0  9990
2 35943   0.0557  74.8973 0003069   5.5427 203.3610  1.00271685 61206
NSS-12                  
1 36032U 09058A   26157.85779014  .00000085  00000+0  00000+0 0  9999
2 36032   0.0641  63.0479 0004970 342.7339 215.3004  1.00272495 60817
THOR 6                  
1 36033U 09058B   26157.77509703  .00000004  00000+0  00000+0 0  9998
2 36033   0.0384 114.4341 0002210 346.3155  72.6256  1.00271895 60908
INTELSAT 14 (IS-14)     
1 36097U 09064A   26157.83765160 -.00000260  00000+0  00000+0 0  9998
2 36097   0.0150 327.8391 0002843 122.9732  61.0065  1.00271718 60505
EUTELSAT 36B            
1 36101U 09065A   26157.85649014  .00000126  00000+0  00000+0 0  9996
2 36101   0.4642  80.9867 0006151 353.7618 179.3508  1.00270393 60603
INTELSAT 15 (IS-15)     
1 36106U 09067A   26157.86341203 -.00000171  00000+0  00000+0 0  9994
2 36106   0.0154 328.6529 0002377 109.6635 212.9420  1.00271995 41124
WGS F3 (USA 211)        
1 36108U 09068A   26157.67818749  .00000078  00000+0  00000+0 0  9995
2 36108   0.3361  85.8736 0000534 327.7805 315.6122  1.00269883 46483
DIRECTV 12              
1 36131U 09075A   26157.82612486 -.00000090  00000+0  00000+0 0  9991
2 36131   0.0438 141.1857 0000338 267.0309  41.7124  1.00270892 46445
BEIDOU-2 G1             
1 36287U 10001A   26156.59103902 -.00000269  00000+0  00000+0 0  9993
2 36287   4.2662  60.4432 0002583 313.7615 233.0101  1.00269061 60057
SDO                     
1 36395U 10005A   26157.34396931 -.00000062  00000+0  00000+0 0  9998
2 36395  34.6287  86.5080 0001398  50.1694 139.9279  1.00271136 59950
INTELSAT 16 (IS-16)     
1 36397U 10006A   26157.83141155 -.00000231  00000+0  00000+0 0  9999
2 36397   0.0208  45.5909 0002211  43.7432  29.0365  1.00271223 59558
EWS-G2 (GOES 15)        
1 36411U 10008A   26157.85909015  .00000032  00000+0  00000+0 0  9995
2 36411   1.2486  83.0335 0005467  36.8645 148.2272  1.00275967 59539
ECHOSTAR 14             
1 36499U 10010A   26157.60907699  .00000014  00000+0  00000+0 0  9993
2 36499   0.0431  89.1333 0002539   1.9929 264.2678  1.00271975 46442
