OBJECT_NAME,OBJECT_ID,EPOCH,MEAN_MOTION,ECCENTRICITY,INCLINATION,RA_OF_ASC_NODE,ARG_OF_PERICENTER,MEAN_ANOMALY,EPHEMERIS_TYPE,CLASSIFICATION_TYPE,NORAD_CAT_ID,ELEMENT_SET_NO,REV_AT_EPOCH,BSTAR,MEAN_MOTION_DOT,MEAN_MOTION_DDOT
INMARSAT 4-F3,2008-039A,2026-06-06T14:43:03.679392,1.00270385,.0002754,4.2844,31.5915,48.5507,297.6369,0,U,33278,999,4643,0,-.128E-5,0
NIMIQ 4,2008-044A,2026-06-06T19:55:36.615360,1.00270840,.0002044,0.0096,46.0491,22.5317,43.5675,0,U,33373,999,6488,0,-.207E-5,0
GALAXY 19 (G-19),2008-045A,2026-06-06T14:43:18.655104,1.00280536,.0003083,0.0147,61.0528,21.4185,296.4012,0,U,33376,999,6479,0,-.127E-5,0
ASTRA 1M,2008-057A,2026-06-06T20:24:36.586080,1.00273950,.0005067,0.2689,82.3090,19.7607,118.7478,0,U,33436,999,4563,0,.135E-5,0
EUTELSAT HOTBIRD 13C,2008-065A,2026-06-06T20:04:43.241376,1.00271941,.0003784,2.9229,79.3140,357.7688,69.0487,0,U,33459,999,4724,0,-.269E-5,0
EXPRESS-AM44,2009-007A,2026-06-06T20:15:49.675680,1.00272081,.0004417,3.4366,78.5191,351.8752,117.8249,0,U,33595,999,5218,0,-.75E-6,0
NSS-9,2009-008A,2026-06-06T19:28:31.711296,1.00271213,.0002275,1.2341,82.7601,342.8992,304.7643,0,U,33749,999,6341,0,.85E-6,0
TELSTAR 11N,2009-009A,2026-06-06T20:08:20.393088,1.00271710,.0002586,0.0173,3.5538,62.4560,93.7717,0,U,34111,999,4614,0,-.237E-5,0
WGS F2 (USA 204),2009-017A,2026-06-06T19:31:22.981152,1.00268275,.0000667,0.0175,336.7295,237.6080,31.2556,0,U,34713,999,4551,0,.82E-6,0
SES-7 (PROTOSTAR 2),2009-027A,2026-06-06T20:08:38.467104,1.00273271,.0000503,0.0594,78.9322,321.6141,265.1286,0,U,34941,999,6252,0,-.331E-5,0
MEASAT-3A,2009-032A,2026-06-06T19:21:54.844128,1.00272137,.0003171,0.0223,353.8867,79.2652,272.5503,0,U,35362,999,792,0,-.97E-6,0
GOES 14,2009-033A,2026-06-06T15:13:38.481024,1.00114764,.0002047,1.6621,83.1711,2.3886,185.7647,0,U,35491,999,648,0,-.234E-5,0
FM-5,2009-034A,2026-06-06T19:54:29.223360,1.00271652,.0000596,0.0159,292.0098,27.6992,148.0024,0,U,35493,999,4654,0,-.186E-5,0
TERRESTAR-1,2009-035A,2026-06-06T16:22:04.871712,1.00273426,.000278,5.1760,48.8051,22.2788,318.5272,0,U,35496,999,6202,0,-.44E-6,0
ASIASAT 5,2009-042A,2026-06-06T20:47:36.731040,1.00272420,.0001497,0.0097,41.0677,14.8871,251.7346,0,U,35696,999,6160,0,-.294E-5,0
JCSAT-12 (JCSAT-RA),2009-044A,2026-06-06T20:56:35.868768,1.00272355,.0000238,0.0099,335.9536,100.3999,265.1217,0,U,35755,999,6150,0,-.314E-5,0
OPTUS D3,2009-044B,2026-06-06T19:20:54.941280,1.00270999,.0003239,0.8659,269.7353,169.7377,262.1231,0,U,35756,999,6146,0,-.132E-5,0
NIMIQ 5,2009-050A,2026-06-06T13:07:33.595968,1.00272146,.0002952,0.0218,61.8928,13.4240,303.8408,0,U,35873,999,6123,0,-.244E-5,0
AMAZONAS 2,2009-054A,2026-06-06T19:58:28.839072,1.00206924,.0006148,1.7879,83.1757,32.1655,7.5573,0,U,35942,999,6108,0,-.24E-5,0
COMSATBW-1,2009-054B,2026-06-06T21:41:55.410720,1.00271685,.0003069,0.0557,74.8973,5.5427,203.3610,0,U,35943,999,6120,0,.38E-6,0
NSS-12,2009-058A,2026-06-06T20:35:13.068096,1.00272495,.000497,0.0641,63.0479,342.7339,215.3004,0,U,36032,999,6081,0,.85E-6,0
THOR 6,2009-058B,2026-06-06T18:36:08.383392,1.00271895,.000221,0.0384,114.4341,346.3155,72.6256,0,U,36033,999,6090,0,.4E-7,0
INTELSAT 14 (IS-14),2009-064A,2026-06-06T20:06:13.098240,1.00271718,.0002843,0.0150,327.8391,122.9732,61.0065,0,U,36097,999,6050,0,-.26E-5,0
EUTELSAT 36B,2009-065A,2026-06-06T20:33:20.748096,1.00270393,.0006151,0.4642,80.9867,353.7618,179.3508,0,U,36101,999,6060,0,.126E-5,0
INTELSAT 15 (IS-15),2009-067A,2026-06-06T20:43:18.799392,1.00271995,.0002377,0.0154,328.6529,109.6635,212.9420,0,U,36106,999,4112,0,-.171E-5,0
WGS F3 (USA 211),2009-068A,2026-06-06T16:16:35.399136,1.00269883,.0000534,0.3361,85.8736,327.7805,315.6122,0,U,36108,999,4648,0,.78E-6,0
DIRECTV 12,2009-075A,2026-06-06T19:49:37.187904,1.00270892,.0000338,0.0438,141.1857,267.0309,41.7124,0,U,36131,999,4644,0,-.9E-6,0
BEIDOU-2 G1,2010-001A,2026-06-05T14:11:05.771328,1.00269061,.00025835,4.2662,60.4432,313.7615,233.0101,0,U,36287,999,6005,0,-.269E-5,0
SDO,2010-005A,2026-06-06T08:15:18.948384,1.00271136,.00013983,34.6287,86.5080,50.1694,139.9279,0,U,36395,999,5995,0,-.62E-6,0
INTELSAT 16 (IS-16),2010-006A,2026-06-06T19:57:13.957920,1.00271223,.0002211,0.0208,45.5909,43.7432,29.0365,0,U,36397,999,5955,0,-.231E-5,0
EWS-G2 (GOES 15),2010-008A,2026-06-06T20:37:05.388960,1.00275967,.0005467,1.2486,83.0335,36.8645,148.2272,0,U,36411,999,5953,0,.32E-6,0
ECHOSTAR 14,2010-010A,2026-06-06T14:37:04.251936,1.00271975,.0002539,0.0431,89.1333,1.9929,264.2678,0,U,36499,999,4644,0,.14E-6,0
